[
    {
        "OBJECT_NAME": "IRIDIUM 130",
        "OBJECT_ID": "2017-083D",
        "EPOCH": "2025-05-16T01:27:39.215520",
        "MEAN_MOTION": 14.34217688,
        "ECCENTRICITY": 0.0002674,
        "INCLINATION": 86.3951,
        "RA_OF_ASC_NODE": 128.2755,
        "ARG_OF_PERICENTER": 93.4039,
        "MEAN_ANOMALY": 266.7463,
        "EPHEMERIS_TYPE": 0,
        "CLASSIFICATION_TYPE": "U",
        "NORAD_CAT_ID": 43073,
        "ELEMENT_SET_NO": 999,
        "REV_AT_EPOCH": 38719,
        "BSTAR": -2.85e-06,
        "MEAN_MOTION_DOT": 1.2e-07,
        "MEAN_MOTION_DDOT": 0,
        "period": 1.668815316,
        "radius": 7141439.449,
        "altitude": 763.4394494,
        "angle": 144.0053738
    },
    {
        "OBJECT_NAME": "IRIDIUM 151",
        "OBJECT_ID": "2017-083E",
        "EPOCH": "2025-05-15T08:06:27.216000",
        "MEAN_MOTION": 14.34217606,
        "ECCENTRICITY": 0.0002587,
        "INCLINATION": 86.3944,
        "RA_OF_ASC_NODE": 128.3901,
        "ARG_OF_PERICENTER": 87.9367,
        "MEAN_ANOMALY": 272.2125,
        "EPHEMERIS_TYPE": 0,
        "CLASSIFICATION_TYPE": "U",
        "NORAD_CAT_ID": 43074,
        "ELEMENT_SET_NO": 999,
        "REV_AT_EPOCH": 38711,
        "BSTAR": 4.42e-06,
        "MEAN_MOTION_DOT": 3.2e-07,
        "MEAN_MOTION_DDOT": 0,
        "period": 1.668815412,
        "radius": 7141439.722,
        "altitude": 763.4397216,
        "angle": 144.0053618
    },
    {
        "OBJECT_NAME": "IRIDIUM 134",
        "OBJECT_ID": "2017-083F",
        "EPOCH": "2025-05-16T01:45:55.216800",
        "MEAN_MOTION": 14.34217367,
        "ECCENTRICITY": 0.0002424,
        "INCLINATION": 86.3949,
        "RA_OF_ASC_NODE": 128.0851,
        "ARG_OF_PERICENTER": 94.7195,
        "MEAN_ANOMALY": 265.4278,
        "EPHEMERIS_TYPE": 0,
        "CLASSIFICATION_TYPE": "U",
        "NORAD_CAT_ID": 43075,
        "ELEMENT_SET_NO": 999,
        "REV_AT_EPOCH": 38718,
        "BSTAR": -1.27e-05,
        "MEAN_MOTION_DOT": -1.6e-07,
        "MEAN_MOTION_DDOT": 0,
        "period": 1.66881569,
        "radius": 7141440.515,
        "altitude": 763.440515,
        "angle": 144.0053268
    },
    {
        "OBJECT_NAME": "IRIDIUM 137",
        "OBJECT_ID": "2017-083G",
        "EPOCH": "2025-05-15T12:40:27.108192",
        "MEAN_MOTION": 14.34217473,
        "ECCENTRICITY": 0.0002835,
        "INCLINATION": 86.3948,
        "RA_OF_ASC_NODE": 128.3978,
        "ARG_OF_PERICENTER": 79.3646,
        "MEAN_ANOMALY": 280.7869,
        "EPHEMERIS_TYPE": 0,
        "CLASSIFICATION_TYPE": "U",
        "NORAD_CAT_ID": 43076,
        "ELEMENT_SET_NO": 999,
        "REV_AT_EPOCH": 38717,
        "BSTAR": 2.52e-06,
        "MEAN_MOTION_DOT": 2.7e-07,
        "MEAN_MOTION_DDOT": 0,
        "period": 1.668815566,
        "radius": 7141440.163,
        "altitude": 763.4401631,
        "angle": 144.0053423
    },
    {
        "OBJECT_NAME": "IRIDIUM 141",
        "OBJECT_ID": "2017-083H",
        "EPOCH": "2025-05-15T12:31:18.747264",
        "MEAN_MOTION": 14.34217213,
        "ECCENTRICITY": 0.0002061,
        "INCLINATION": 86.3943,
        "RA_OF_ASC_NODE": 128.2536,
        "ARG_OF_PERICENTER": 90.1763,
        "MEAN_ANOMALY": 269.9669,
        "EPHEMERIS_TYPE": 0,
        "CLASSIFICATION_TYPE": "U",
        "NORAD_CAT_ID": 43077,
        "ELEMENT_SET_NO": 999,
        "REV_AT_EPOCH": 38717,
        "BSTAR": 1.58e-06,
        "MEAN_MOTION_DOT": 2.4e-07,
        "MEAN_MOTION_DDOT": 0,
        "period": 1.668815869,
        "radius": 7141441.026,
        "altitude": 763.4410262,
        "angle": 144.0053043
    },
    {
        "OBJECT_NAME": "IRIDIUM 153",
        "OBJECT_ID": "2017-083J",
        "EPOCH": "2025-05-15T09:41:59.347968",
        "MEAN_MOTION": 14.34216951,
        "ECCENTRICITY": 0.0001841,
        "INCLINATION": 86.3941,
        "RA_OF_ASC_NODE": 96.7736,
        "ARG_OF_PERICENTER": 93.4269,
        "MEAN_ANOMALY": 266.7137,
        "EPHEMERIS_TYPE": 0,
        "CLASSIFICATION_TYPE": "U",
        "NORAD_CAT_ID": 43078,
        "ELEMENT_SET_NO": 999,
        "REV_AT_EPOCH": 38826,
        "BSTAR": 9.12e-06,
        "MEAN_MOTION_DOT": 4.5e-07,
        "MEAN_MOTION_DDOT": 0,
        "period": 1.668816174,
        "radius": 7141441.896,
        "altitude": 763.4418959,
        "angle": 144.0052659
    },
    {
        "OBJECT_NAME": "IRIDIUM 131",
        "OBJECT_ID": "2017-083K",
        "EPOCH": "2025-05-15T08:52:07.108608",
        "MEAN_MOTION": 14.34217566,
        "ECCENTRICITY": 0.0002068,
        "INCLINATION": 86.3951,
        "RA_OF_ASC_NODE": 128.4769,
        "ARG_OF_PERICENTER": 85.7858,
        "MEAN_ANOMALY": 274.3574,
        "EPHEMERIS_TYPE": 0,
        "CLASSIFICATION_TYPE": "U",
        "NORAD_CAT_ID": 43079,
        "ELEMENT_SET_NO": 999,
        "REV_AT_EPOCH": 38708,
        "BSTAR": -8.79e-07,
        "MEAN_MOTION_DOT": 1.7e-07,
        "MEAN_MOTION_DDOT": 0,
        "period": 1.668815458,
        "radius": 7141439.854,
        "altitude": 763.4398544,
        "angle": 144.0053559
    },
    {
        "OBJECT_NAME": "IRIDIUM 144",
        "OBJECT_ID": "2018-030A",
        "EPOCH": "2025-05-15T08:10:39.492768",
        "MEAN_MOTION": 14.34217404,
        "ECCENTRICITY": 0.0002306,
        "INCLINATION": 86.3938,
        "RA_OF_ASC_NODE": 96.7383,
        "ARG_OF_PERICENTER": 88.0693,
        "MEAN_ANOMALY": 272.0767,
        "EPHEMERIS_TYPE": 0,
        "CLASSIFICATION_TYPE": "U",
        "NORAD_CAT_ID": 43249,
        "ELEMENT_SET_NO": 999,
        "REV_AT_EPOCH": 37311,
        "BSTAR": -8.8e-06,
        "MEAN_MOTION_DOT": -5e-08,
        "MEAN_MOTION_DDOT": 0,
        "period": 1.668815647,
        "radius": 7141440.392,
        "altitude": 763.4403922,
        "angle": 144.0053322
    },
    {
        "OBJECT_NAME": "IRIDIUM 149",
        "OBJECT_ID": "2018-030B",
        "EPOCH": "2025-05-15T23:23:59.483328",
        "MEAN_MOTION": 14.34217466,
        "ECCENTRICITY": 0.0002341,
        "INCLINATION": 86.3938,
        "RA_OF_ASC_NODE": 96.4445,
        "ARG_OF_PERICENTER": 87.298,
        "MEAN_ANOMALY": 272.8483,
        "EPHEMERIS_TYPE": 0,
        "CLASSIFICATION_TYPE": "U",
        "NORAD_CAT_ID": 43250,
        "ELEMENT_SET_NO": 999,
        "REV_AT_EPOCH": 37322,
        "BSTAR": -3.53e-06,
        "MEAN_MOTION_DOT": 1e-07,
        "MEAN_MOTION_DDOT": 0,
        "period": 1.668815574,
        "radius": 7141440.186,
        "altitude": 763.4401863,
        "angle": 144.0053413
    },
    {
        "OBJECT_NAME": "IRIDIUM 157",
        "OBJECT_ID": "2018-030C",
        "EPOCH": "2025-05-15T22:10:55.102368",
        "MEAN_MOTION": 14.3421962,
        "ECCENTRICITY": 0.0002144,
        "INCLINATION": 86.394,
        "RA_OF_ASC_NODE": 96.5101,
        "ARG_OF_PERICENTER": 80.777,
        "MEAN_ANOMALY": 279.3668,
        "EPHEMERIS_TYPE": 0,
        "CLASSIFICATION_TYPE": "U",
        "NORAD_CAT_ID": 43251,
        "ELEMENT_SET_NO": 999,
        "REV_AT_EPOCH": 37319,
        "BSTAR": 7.18e-05,
        "MEAN_MOTION_DOT": 2.21e-06,
        "MEAN_MOTION_DDOT": 0,
        "period": 1.668813068,
        "radius": 7141433.036,
        "altitude": 763.433036,
        "angle": 144.0056567
    },
    {
        "OBJECT_NAME": "IRIDIUM 140",
        "OBJECT_ID": "2018-030D",
        "EPOCH": "2025-05-15T22:38:19.502592",
        "MEAN_MOTION": 14.34217519,
        "ECCENTRICITY": 0.0002413,
        "INCLINATION": 86.394,
        "RA_OF_ASC_NODE": 96.5158,
        "ARG_OF_PERICENTER": 90.4008,
        "MEAN_ANOMALY": 269.7465,
        "EPHEMERIS_TYPE": 0,
        "CLASSIFICATION_TYPE": "U",
        "NORAD_CAT_ID": 43252,
        "ELEMENT_SET_NO": 999,
        "REV_AT_EPOCH": 37325,
        "BSTAR": 3.27e-06,
        "MEAN_MOTION_DOT": 2.9e-07,
        "MEAN_MOTION_DDOT": 0,
        "period": 1.668815513,
        "radius": 7141440.01,
        "altitude": 763.4400104,
        "angle": 144.0053491
    }
]